[{"OBJECT_NAME":"YAOGAN-31 01A","OBJECT_ID":"2018-034A","EPOCH":"2026-03-09T23:44:11.767776","MEAN_MOTION":13.45451916,"ECCENTRICITY":0.02667971,"INCLINATION":63.3985,"RA_OF_ASC_NODE":346.5133,"ARG_OF_PERICENTER":7.1103,"MEAN_ANOMALY":353.359,"EPHEMERIS_TYPE":0,"CLASSIFICATION_TYPE":"U","NORAD_CAT_ID":43275,"ELEMENT_SET_NO":999,"REV_AT_EPOCH":38875,"BSTAR":-7.1923927e-5,"MEAN_MOTION_DOT":-1.43e-6,"MEAN_MOTION_DDOT":0},{"OBJECT_NAME":"THOR ABLESTAR DEB","OBJECT_ID":"1965-065K","EPOCH":"2026-03-09T21:25:55.606944","MEAN_MOTION":13.33279713,"ECCENTRICITY":0.0069543,"INCLINATION":90.0167,"RA_OF_ASC_NODE":210.0813,"ARG_OF_PERICENTER":180.2579,"MEAN_ANOMALY":302.5716,"EPHEMERIS_TYPE":0,"CLASSIFICATION_TYPE":"U","NORAD_CAT_ID":1521,"ELEMENT_SET_NO":999,"REV_AT_EPOCH":94617,"BSTAR":8.2094859e-5,"MEAN_MOTION_DOT":5.0e-7,"MEAN_MOTION_DDOT":0}]
